NORAD_CAT_ID,OBJECT_NAME,OBJECT_TYPE,EPOCH,MEAN_MOTION,ECCENTRICITY,INCLINATION,RA_OF_ASC_NODE,ARG_OF_PERICENTER,MEAN_ANOMALY,BSTAR,MEAN_MOTION_DOT,MEAN_MOTION_DDOT,TLE_LINE0,TLE_LINE1,TLE_LINE2,SEMIMAJOR_AXIS,PERIOD,APOGEE,PERIGEE,DECAYED
49148.0,STARLINK-3048,PAYLOAD,2021-11-16 04:00:00,15.6976905,0.0003653,69.9985,309.6575,290.6163,198.0199,-0.00020164,-0.00024235,0.0,0 STARLINK-3048,1 49148U 21082U   21320.16667824 -.00024235  00000-0 -20164-3 0  9991,2 49148  69.9985 309.6575 0003653 290.6163 198.0199 15.69769050 11123,6737.695,91.733,362.021,357.098,0.0
49148.0,STARLINK-3048,PAYLOAD,2021-11-16 12:00:00,15.69775668,0.0003722,69.998,308.7202,293.7340000000001,278.0456,9.026e-05,0.00010588,0.0,0 STARLINK-3048,1 49148U 21082U   21320.50001157  .00010588  00000-0  90260-4 0  9999,2 49148  69.9980 308.7202 0003722 293.7340 278.0456 15.69775668 11175,6737.676,91.733,362.049,357.033,0.0
49148.0,STARLINK-3048,PAYLOAD,2021-11-16 14:00:01,15.69800435,0.0003706,69.9982,308.4859,292.7702,29.7928,-0.00034291,-0.00041038,0.0,0 STARLINK-3048,1 49148U 21082U   21320.58334491 -.00041038  00000-0 -34291-3 0  9994,2 49148  69.9982 308.4859 0003706 292.7702  29.7928 15.69800435  3688,6737.605,91.731,361.967,356.973,0.0
49148.0,STARLINK-3048,PAYLOAD,2021-11-16 22:00:00,15.69764942,0.0003701,69.9985,307.5488,286.4257,119.3082,-0.0001879,-0.00022599,0.0,0 STARLINK-3048,1 49148U 21082U   21320.91667824 -.00022599  00000-0 -18790-3 0  9997,2 49148  69.9985 307.5488 0003701 286.4257 119.3082 15.69764942  3701,6737.706999999999,91.733,362.065,357.07800000000015,0.0
49148.0,STARLINK-3048,PAYLOAD,2021-11-17 04:00:00,15.69750191,0.0003868,69.9988,306.8458,288.6123,89.4797,-0.00012683,-0.00015328,0.0,0 STARLINK-3048,1 49148U 21082U   21321.16667824 -.00015328  00000-0 -12683-3 0  9992,2 49148  69.9988 306.8458 0003868 288.6123  89.4797 15.69750191 11286,6737.749,91.734,362.22,357.0080000000001,0.0
49148.0,STARLINK-3048,PAYLOAD,2021-11-17 10:00:00,15.6976089,0.000388,69.9986,306.1429,292.5602,57.8767,-0.00017993,-0.00021649,0.0,0 STARLINK-3048,1 49148U 21082U   21321.41667824 -.00021649  00000-0 -17993-3 0  9992,2 49148  69.9986 306.1429 0003880 292.5602  57.8767 15.69760890  3661,6737.718000000003,91.734,362.197,356.969,0.0
49148.0,STARLINK-3048,PAYLOAD,2021-11-17 20:00:01,15.69250735,0.0004004,69.9995,304.9667,289.5504,254.8302,0.0059725,0.00766085,0.0,0 STARLINK-3048,1 49148U 21082U   21321.83334491  .00766085  00000-0  59725-2 0  9995,2 49148  69.9995 304.9667 0004004 289.5504 254.8302 15.69250735 11381,6739.178000000001,91.764,363.742,358.345,0.0
49148.0,STARLINK-3048,PAYLOAD,2021-11-17 22:00:01,15.69480904,0.0004095,69.9998,304.7322,289.3854,5.6806,0.0035566,0.0044268,0.0,0 STARLINK-3048,1 49148U 21082U   21321.91668981  .00442680  00000-0  35566-2 0  9997,2 49148  69.9998 304.7322 0004095 289.3854   5.6806 15.69480904  3684,6738.519,91.75,363.144,357.625,0.0
49148.0,STARLINK-3048,PAYLOAD,2021-11-18 04:00:00,15.69739636,0.0003603,69.9985,304.0348,289.5349,337.8675,-8.9232e-05,-0.00010847,0.0,0 STARLINK-3048,1 49148U 21082U   21322.16667824 -.00010847  00000-0 -89232-4 0  9999,2 49148  69.9985 304.0348 0003603 289.5349 337.8675 15.69739636 11442,6737.779,91.735,362.072,357.216,0.0
49148.0,STARLINK-3048,PAYLOAD,2021-11-18 14:00:01,15.69768554,0.0003621,69.9981,302.8632,291.2106,170.0771,-0.0003069,-0.0003672,0.0,0 STARLINK-3048,1 49148U 21082U   21322.58334491 -.00036720  00000-0 -30690-3 0  9997,2 49148  69.9981 302.8632 0003621 291.2106 170.0771 15.69768554  3683,6737.696,91.733,362.001,357.121,0.0
49148.0,STARLINK-3048,PAYLOAD,2021-11-18 16:37:44,15.69745455,0.0003761,69.9989,302.555,286.7855,73.2928,0.00011943,0.00014067,0.0,0 STARLINK-3048,1 49148U 21082U   21322.69287575  .00014067  00000-0  11943-3 0  9997,2 49148  69.9989 302.5550 0003761 286.7855  73.2928 15.69745455 11527,6737.762,91.735,362.161,357.093,0.0
49148.0,STARLINK-3048,PAYLOAD,2021-11-18 22:00:00,15.69755182,0.0003556,69.9985,301.9261,284.7093,259.7055,0.00024368,0.00028986,0.0,0 STARLINK-3048,1 49148U 21082U   21322.91667824  .00028986  00000-0  24368-3 0  9991,2 49148  69.9985 301.9261 0003556 284.7093 259.7055 15.69755182  3700,6737.734,91.734,361.995,357.204,0.0
49148.0,STARLINK-3048,PAYLOAD,2021-11-19 12:00:00,15.69739177,0.000384,69.9985,300.2859,289.8908,310.006,-0.0002141,-0.00025685,0.0,0 STARLINK-3048,1 49148U 21082U   21323.50001157 -.00025685  00000-0 -21410-3 0  9998,2 49148  69.9985 300.2859 0003840 289.8908 310.0060 15.69739177 11658,6737.78,91.735,362.233,357.05800000000005,0.0
49148.0,STARLINK-3048,PAYLOAD,2021-11-19 14:00:01,15.69743444,0.0003775,69.9986,300.0517,288.7872,61.8845,-0.00033225,-0.00039682,0.0,0 STARLINK-3048,1 49148U 21082U   21323.58334491 -.00039682  00000-0 -33225-3 0  9995,2 49148  69.9986 300.0517 0003775 288.7872  61.8845 15.69743444  3681,6737.768,91.735,362.177,357.09,0.0
49148.0,STARLINK-3048,PAYLOAD,2021-11-19 22:00:00,15.6969115,0.0003626,70.0,299.1101,289.3697,144.2802,0.00078901,0.00094824,0.0,0 STARLINK-3048,1 49148U 21082U   21323.91667824  .00094824  00000-0  78901-3 0  9998,2 49148  70.0000 299.1101 0003626 289.3697 144.2802 15.69691150  3691,6737.918000000002,91.738,362.226,357.34,0.0
49148.0,STARLINK-3048,PAYLOAD,2021-11-20 04:00:00,15.69759485,0.0003818,69.9989,298.4122,287.1228,119.0331,-0.00012353,-0.0001494,0.0,0 STARLINK-3048,1 49148U 21082U   21324.16667824 -.00014940  00000-0 -12353-3 0  9998,2 49148  69.9989 298.4122 0003818 287.1228 119.0331 15.69759485 11757,6737.722,91.734,362.16,357.015,0.0
49148.0,STARLINK-3048,PAYLOAD,2021-11-20 14:00:01,15.69804128,0.0003882,69.9985,297.2406,287.2672,312.7967,-0.00086136,-0.00102043,0.0,0 STARLINK-3048,1 49148U 21082U   21324.58334491 -.00102043  00000-0 -86136-3 0  9997,2 49148  69.9985 297.2406 0003882 287.2672 312.7967 15.69804128  3685,6737.594,91.731,362.075,356.844,0.0
49148.0,STARLINK-3048,PAYLOAD,2021-11-20 22:00:00,15.69731859,0.0003947,69.999,296.3035,282.0079,41.2168,8.942700000000001e-05,0.0001047,0.0,0 STARLINK-3048,1 49148U 21082U   21324.91667824  .00010470  00000-0  89427-4 0  9990,2 49148  69.9990 296.3035 0003947 282.0079  41.2168 15.69731859  3693,6737.801,91.735,362.326,357.00699999999995,0.0
49148.0,STARLINK-3048,PAYLOAD,2021-11-21 12:00:00,15.69764698,0.0004035,69.9989,294.6636,287.3705,91.2863,-0.00018961,-0.00022804,0.0,0 STARLINK-3048,1 49148U 21082U   21325.50001157 -.00022804  00000-0 -18961-3 0  9997,2 49148  69.9989 294.6636 0004035 287.3705  91.2863 15.69764698 11965,6737.706999999999,91.733,362.291,356.85400000000016,0.0
49148.0,STARLINK-3048,PAYLOAD,2021-11-21 14:00:01,15.69767709,0.0003973,69.999,294.4293,285.9195,203.5203,-0.00027304,-0.00032709,0.0,0 STARLINK-3048,1 49148U 21082U   21325.58334491 -.00032709  00000-0 -27304-3 0  9991,2 49148  69.9990 294.4293 0003973 285.9195 203.5203 15.69767709  3694,6737.699000000001,91.733,362.241,356.88699999999994,0.0
49148.0,STARLINK-3048,PAYLOAD,2021-11-21 22:00:00,15.6976396,0.0003881,69.9994,293.4927,281.4161,291.1499,0.00028832,0.00034371,0.0,0 STARLINK-3048,1 49148U 21082U   21325.91667824  .00034371  00000-0  28832-3 0  9999,2 49148  69.9994 293.4927 0003881 281.4161 291.1499 15.69763960  3687,6737.709,91.734,362.189,356.959,0.0
49148.0,STARLINK-3048,PAYLOAD,2021-11-22 04:00:00,15.69795967,0.0003939,69.9992,292.7899,285.7022,259.2324,-0.00047245,-0.00056351,0.0,0 STARLINK-3048,1 49148U 21082U   21326.16667824 -.00056351  00000-0 -47245-3 0  9990,2 49148  69.9992 292.7899 0003939 285.7022 259.2324 15.69795967 12068,6737.618,91.732,362.137,356.829,0.0
49148.0,STARLINK-3048,PAYLOAD,2021-11-22 12:00:00,15.69763409,0.0003804,69.9987,291.8527,287.3681,340.7244,-0.0004385,-0.0005227,0.0,0 STARLINK-3048,1 49148U 21082U   21326.50001157 -.00052270  00000-0 -43850-3 0  9993,2 49148  69.9987 291.8527 0003804 287.3681 340.7244 15.69763409  3670,6737.7109999999975,91.734,362.139,357.01300000000015,0.0
49148.0,STARLINK-3048,PAYLOAD,2021-11-22 20:00:01,15.69710695,0.0003688,69.999,290.9157,281.64,69.5726,0.00063029,0.00075594,0.0,0 STARLINK-3048,1 49148U 21082U   21326.83334491  .00075594  00000-0  63029-3 0  9991,2 49148  69.9990 290.9157 0003688 281.6400  69.5726 15.69710695 12174,6737.861999999999,91.737,362.212,357.242,0.0
49148.0,STARLINK-3048,PAYLOAD,2021-11-22 22:00:00,15.6974854,0.0003641,69.9993,290.6814,281.6537,180.3242,0.00013101,0.00015456,0.0,0 STARLINK-3048,1 49148U 21082U   21326.91667824  .00015456  00000-0  13101-3 0  9996,2 49148  69.9993 290.6814 0003641 281.6537 180.3242 15.69748540  3696,6737.753000000002,91.734,362.072,357.165,0.0
49148.0,STARLINK-3048,PAYLOAD,2021-11-23 04:00:00,15.69771522,0.0003688,69.9992,289.9787,286.276,148.0504,-0.00078801,-0.00093337,0.0,0 STARLINK-3048,1 49148U 21082U   21327.16667824 -.00093337  00000-0 -78801-3 0  9998,2 49148  69.9992 289.9787 0003688 286.2760 148.0504 15.69771522 12222,6737.688,91.733,362.038,357.0680000000001,0.0
49148.0,STARLINK-3048,PAYLOAD,2021-11-23 12:00:00,15.69735832,0.0003463,69.9991,289.0417,288.3255,229.1194,-0.00034199,-0.00040818,0.0,0 STARLINK-3048,1 49148U 21082U   21327.50001157 -.00040818  00000-0 -34199-3 0  9995,2 49148  69.9991 289.0417 0003463 288.3255 229.1194 15.69735832 12270,6737.79,91.735,361.98800000000006,357.32199999999995,0.0
49148.0,STARLINK-3048,PAYLOAD,2021-11-23 14:00:01,15.69726883,0.0003411,69.9992,288.8075,286.7004,341.5205,-0.00022829,-0.00027351,0.0,0 STARLINK-3048,1 49148U 21082U   21327.58334491 -.00027351  00000-0 -22829-3 0  9997,2 49148  69.9992 288.8075 0003411 286.7004 341.5205 15.69726883  3677,6737.815,91.736,361.979,357.38199999999995,0.0
49148.0,STARLINK-3048,PAYLOAD,2021-11-23 20:00:01,15.69700231,0.0003378,69.9993,288.105,282.1532,318.4487,0.00059201,0.00070916,0.0,0 STARLINK-3048,1 49148U 21082U   21327.83335648  .00070916  00000-0  59201-3 0  9997,2 49148  69.9993 288.1050 0003378 282.1532 318.4487 15.69700231 12339,6737.892,91.737,362.033,357.481,0.0
